1    58U 60013A   24323.75074490  .00000138  00000-0  80491-4 0  9991
2    58  28.3250 179.5226 0164846 122.9779 238.6728 13.46395287156997
